{
  "type": "FeatureCollection",
  "features": [
    {
      "type": "Feature",
      "properties": {
        "norad_id": 30949,
        "name": "FENGYUN 1C DEB",
        "group": "fengyun-1c-debris",
        "lat": 53.04791334745005,
        "lon": -33.00423092286368,
        "alt_km": 850.1615229025929,
        "timestamp": "2025-12-10T07:43:55.058979+00:00",
        "meta_object_name": "FENGYUN 1C DEB",
        "meta_object_id": "1999-025BAP",
        "meta_epoch": "2025-12-09T18:44:39.277824",
        "meta_mean_motion": 14.14043331,
        "meta_eccentricity": 0.0116447,
        "meta_inclination": 98.6974,
        "meta_ra_of_asc_node": 338.21,
        "meta_arg_of_pericenter": 318.3292,
        "meta_mean_anomaly": 221.1179,
        "meta_ephemeris_type": 0,
        "meta_classification_type": "U",
        "meta_norad_cat_id": 30949,
        "meta_element_set_no": 999,
        "meta_rev_at_epoch": 96474,
        "meta_bstar": 0.00042755,
        "meta_mean_motion_dot": 8.24e-06,
        "meta_mean_motion_ddot": 0,
        "tle_line1": "1 30949U 99025BAP 25343.78101016  .00000824  00000+0  42755-3 0  9990",
        "tle_line2": "2 30949  98.6974 338.2100 0116447 318.3292 221.1179 14.14043331964745"
      },
      "geometry": {
        "type": "Point",
        "coordinates": [
          -33.00423092286368,
          53.04791334745005
        ]
      }
    },
    {
      "type": "Feature",
      "properties": {
        "norad_id": 30954,
        "name": "FENGYUN 1C DEB",
        "group": "fengyun-1c-debris",
        "lat": 80.72213318286227,
        "lon": 14.678827404118096,
        "alt_km": 861.7508175794774,
        "timestamp": "2025-12-10T07:43:55.058989+00:00",
        "meta_object_name": "FENGYUN 1C DEB",
        "meta_object_id": "1999-025BAU",
        "meta_epoch": "2025-12-09T18:30:31.844160",
        "meta_mean_motion": 14.14908577,
        "meta_eccentricity": 0.012872,
        "meta_inclination": 98.7115,
        "meta_ra_of_asc_node": 83.9533,
        "meta_arg_of_pericenter": 195.7137,
        "meta_mean_anomaly": 327.6591,
        "meta_ephemeris_type": 0,
        "meta_classification_type": "U",
        "meta_norad_cat_id": 30954,
        "meta_element_set_no": 999,
        "meta_rev_at_epoch": 96345,
        "meta_bstar": 0.0021526,
        "meta_mean_motion_dot": 4.465e-05,
        "meta_mean_motion_ddot": 0,
        "tle_line1": "1 30954U 99025BAU 25343.77120190  .00004465  00000+0  21526-2 0  9996",
        "tle_line2": "2 30954  98.7115  83.9533 0128720 195.7137 327.6591 14.14908577963454"
      },
      "geometry": {
        "type": "Point",
        "coordinates": [
          14.678827404118096,
          80.72213318286227
        ]
      }
    },
    {
      "type": "Feature",
      "properties": {
        "norad_id": 30956,
        "name": "FENGYUN 1C DEB",
        "group": "fengyun-1c-debris",
        "lat": 81.07922084097437,
        "lon": -82.3933853473729,
        "alt_km": 844.6418800643796,
        "timestamp": "2025-12-10T07:43:55.059000+00:00",
        "meta_object_name": "FENGYUN 1C DEB",
        "meta_object_id": "1999-025BAW",
        "meta_epoch": "2025-12-09T13:21:27.445824",
        "meta_mean_motion": 14.14190977,
        "meta_eccentricity": 0.0049338,
        "meta_inclination": 98.7604,
        "meta_ra_of_asc_node": 17.6344,
        "meta_arg_of_pericenter": 352.1573,
        "meta_mean_anomaly": 163.3992,
        "meta_ephemeris_type": 0,
        "meta_classification_type": "U",
        "meta_norad_cat_id": 30956,
        "meta_element_set_no": 999,
        "meta_rev_at_epoch": 96262,
        "meta_bstar": 0.0014968,
        "meta_mean_motion_dot": 2.844e-05,
        "meta_mean_motion_ddot": 0,
        "tle_line1": "1 30956U 99025BAW 25343.55656766  .00002844  00000+0  14968-2 0  9998",
        "tle_line2": "2 30956  98.7604  17.6344 0049338 352.1573 163.3992 14.14190977962628"
      },
      "geometry": {
        "type": "Point",
        "coordinates": [
          -82.3933853473729,
          81.07922084097437
        ]
      }
    },
    {
      "type": "Feature",
      "properties": {
        "norad_id": 30960,
        "name": "FENGYUN 1C DEB",
        "group": "fengyun-1c-debris",
        "lat": -1.155224678421003,
        "lon": -80.11711906992176,
        "alt_km": 538.65804298067,
        "timestamp": "2025-12-10T07:43:55.059009+00:00",
        "meta_object_name": "FENGYUN 1C DEB",
        "meta_object_id": "1999-025BBA",
        "meta_epoch": "2025-12-09T03:04:47.835552",
        "meta_mean_motion": 14.66749109,
        "meta_eccentricity": 0.01966665,
        "meta_inclination": 99.0003,
        "meta_ra_of_asc_node": 98.7561,
        "meta_arg_of_pericenter": 172.9505,
        "meta_mean_anomaly": 187.4537,
        "meta_ephemeris_type": 0,
        "meta_classification_type": "U",
        "meta_norad_cat_id": 30960,
        "meta_element_set_no": 999,
        "meta_rev_at_epoch": 98645,
        "meta_bstar": 0.0019392811,
        "meta_mean_motion_dot": 0.00014404,
        "meta_mean_motion_ddot": 0,
        "tle_line1": "1 30960U 99025BBA 25343.12833143  .00014404  00000+0  19393-2 0  9994",
        "tle_line2": "2 30960  99.0003  98.7561 0196666 172.9505 187.4537 14.66749109986454"
      },
      "geometry": {
        "type": "Point",
        "coordinates": [
          -80.11711906992176,
          -1.155224678421003
        ]
      }
    },
    {
      "type": "Feature",
      "properties": {
        "norad_id": 30967,
        "name": "FENGYUN 1C DEB",
        "group": "fengyun-1c-debris",
        "lat": 47.36611881641167,
        "lon": 120.06014835193447,
        "alt_km": 726.5850567507068,
        "timestamp": "2025-12-10T07:43:55.059020+00:00",
        "meta_object_name": "FENGYUN 1C DEB",
        "meta_object_id": "1999-025BBH",
        "meta_epoch": "2025-12-08T02:22:53.243040",
        "meta_mean_motion": 14.57082923,
        "meta_eccentricity": 0.0094727,
        "meta_inclination": 98.7638,
        "meta_ra_of_asc_node": 288.0764,
        "meta_arg_of_pericenter": 254.0338,
        "meta_mean_anomaly": 105.0406,
        "meta_ephemeris_type": 0,
        "meta_classification_type": "U",
        "meta_norad_cat_id": 30967,
        "meta_element_set_no": 999,
        "meta_rev_at_epoch": 98946,
        "meta_bstar": 0.0011924477,
        "meta_mean_motion_dot": 5.657e-05,
        "meta_mean_motion_ddot": 0,
        "tle_line1": "1 30967U 99025BBH 25342.09922735  .00005657  00000+0  11924-2 0  9994",
        "tle_line2": "2 30967  98.7638 288.0764 0094727 254.0338 105.0406 14.57082923989460"
      },
      "geometry": {
        "type": "Point",
        "coordinates": [
          120.06014835193447,
          47.36611881641167
        ]
      }
    },
    {
      "type": "Feature",
      "properties": {
        "norad_id": 30971,
        "name": "FENGYUN 1C DEB",
        "group": "fengyun-1c-debris",
        "lat": -30.582992192545873,
        "lon": -157.64807903529393,
        "alt_km": 549.0872621438484,
        "timestamp": "2025-12-10T07:43:55.059029+00:00",
        "meta_object_name": "FENGYUN 1C DEB",
        "meta_object_id": "1999-025BBM",
        "meta_epoch": "2025-12-09T09:37:52.231872",
        "meta_mean_motion": 14.71654245,
        "meta_eccentricity": 0.01637373,
        "meta_inclination": 99.2097,
        "meta_ra_of_asc_node": 26.8128,
        "meta_arg_of_pericenter": 201.4831,
        "meta_mean_anomaly": 173.1523,
        "meta_ephemeris_type": 0,
        "meta_classification_type": "U",
        "meta_norad_cat_id": 30971,
        "meta_element_set_no": 999,
        "meta_rev_at_epoch": 99668,
        "meta_bstar": 0.00091784067,
        "meta_mean_motion_dot": 6.987e-05,
        "meta_mean_motion_ddot": 0,
        "tle_line1": "1 30971U 99025BBM 25343.40129898  .00006987  00000+0  91784-3 0  9994",
        "tle_line2": "2 30971  99.2097  26.8128 0163737 201.4831 173.1523 14.71654245996680"
      },
      "geometry": {
        "type": "Point",
        "coordinates": [
          -157.64807903529393,
          -30.582992192545873
        ]
      }
    },
    {
      "type": "Feature",
      "properties": {
        "norad_id": 30979,
        "name": "FENGYUN 1C DEB",
        "group": "fengyun-1c-debris",
        "lat": -22.344597994601525,
        "lon": 59.58863973733151,
        "alt_km": 545.9410117769157,
        "timestamp": "2025-12-10T07:43:55.059039+00:00",
        "meta_object_name": "FENGYUN 1C DEB",
        "meta_object_id": "1999-025BBV",
        "meta_epoch": "2025-12-09T16:19:38.396064",
        "meta_mean_motion": 14.7867842,
        "meta_eccentricity": 0.0190434,
        "meta_inclination": 97.8296,
        "meta_ra_of_asc_node": 242.2061,
        "meta_arg_of_pericenter": 251.2274,
        "meta_mean_anomaly": 138.0808,
        "meta_ephemeris_type": 0,
        "meta_classification_type": "U",
        "meta_norad_cat_id": 30979,
        "meta_element_set_no": 999,
        "meta_rev_at_epoch": 99100,
        "meta_bstar": 0.0015768,
        "meta_mean_motion_dot": 0.00015667,
        "meta_mean_motion_ddot": 0,
        "tle_line1": "1 30979U 99025BBV 25343.68030551  .00015667  00000+0  15768-2 0  9991",
        "tle_line2": "2 30979  97.8296 242.2061 0190434 251.2274 138.0808 14.78678420991006"
      },
      "geometry": {
        "type": "Point",
        "coordinates": [
          59.58863973733151,
          -22.344597994601525
        ]
      }
    }
  ]
}